[{"OBJECT_NAME":"OSCAR 7 (AO-7)","OBJECT_ID":"1974-089B","EPOCH":"2026-03-05T15:46:17.793696","MEAN_MOTION":12.53696301,"ECCENTRICITY":0.0012,"INCLINATION":101.9969,"RA_OF_ASC_NODE":76.8035,"ARG_OF_PERICENTER":329.9231,"MEAN_ANOMALY":145.361,"EPHEMERIS_TYPE":0,"CLASSIFICATION_TYPE":"U","NORAD_CAT_ID":7530,"ELEMENT_SET_NO":999,"REV_AT_EPOCH":34754,"BSTAR":-3.2217e-5,"MEAN_MOTION_DOT":-5.2e-7,"MEAN_MOTION_DDOT":0},{"OBJECT_NAME":"PHASE 3B (AO-10)","OBJECT_ID":"1983-058B","EPOCH":"2026-03-02T12:48:52.290720","MEAN_MOTION":2.05874052,"ECCENTRICITY":0.6049007,"INCLINATION":25.932,"RA_OF_ASC_NODE":237.486,"ARG_OF_PERICENTER":86.0782,"MEAN_ANOMALY":336.7646,"EPHEMERIS_TYPE":0,"CLASSIFICATION_TYPE":"U","NORAD_CAT_ID":14129,"ELEMENT_SET_NO":999,"REV_AT_EPOCH":29329,"BSTAR":0,"MEAN_MOTION_DOT":-1.64e-6,"MEAN_MOTION_DDOT":0},{"OBJECT_NAME":"UOSAT 2 (UO-11)","OBJECT_ID":"1984-021B","EPOCH":"2026-03-05T07:26:22.284096","MEAN_MOTION":14.90486816,"ECCENTRICITY":0.0008092,"INCLINATION":97.7942,"RA_OF_ASC_NODE":31.137,"ARG_OF_PERICENTER":156.696,"MEAN_ANOMALY":203.4626,"EPHEMERIS_TYPE":0,"CLASSIFICATION_TYPE":"U","NORAD_CAT_ID":14781,"ELEMENT_SET_NO":999,"REV_AT_EPOCH":24165,"BSTAR":0.00027934,"MEAN_MOTION_DOT":2.672e-5,"MEAN_MOTION_DDOT":0},{"OBJECT_NAME":"LUSAT (LO-19)","OBJECT_ID":"1990-005G","EPOCH":"2026-03-05T13:47:00.498912","MEAN_MOTION":14.3408611,"ECCENTRICITY":0.0012192,"INCLINATION":98.8937,"RA_OF_ASC_NODE":83.4847,"ARG_OF_PERICENTER":145.9021,"MEAN_ANOMALY":214.2948,"EPHEMERIS_TYPE":0,"CLASSIFICATION_TYPE":"U","NORAD_CAT_ID":20442,"ELEMENT_SET_NO":999,"REV_AT_EPOCH":88754,"BSTAR":9.4517e-5,"MEAN_MOTION_DOT":2.18e-6,"MEAN_MOTION_DDOT":0},{"OBJECT_NAME":"EYESAT A (AO-27)","OBJECT_ID":"1993-061C","EPOCH":"2026-03-05T15:37:57.747648","MEAN_MOTION":14.30911584,"ECCENTRICITY":0.0009135,"INCLINATION":98.6989,"RA_OF_ASC_NODE":132.0582,"ARG_OF_PERICENTER":49.927,"MEAN_ANOMALY":310.2712,"EPHEMERIS_TYPE":0,"CLASSIFICATION_TYPE":"U","NORAD_CAT_ID":22825,"ELEMENT_SET_NO":999,"REV_AT_EPOCH":69219,"BSTAR":8.1574e-5,"MEAN_MOTION_DOT":1.7e-6,"MEAN_MOTION_DDOT":0},{"OBJECT_NAME":"ITAMSAT (IO-26)","OBJECT_ID":"1993-061D","EPOCH":"2026-03-05T15:52:35.173344","MEAN_MOTION":14.31335491,"ECCENTRICITY":0.000942,"INCLINATION":98.6938,"RA_OF_ASC_NODE":131.9756,"ARG_OF_PERICENTER":34.3061,"MEAN_ANOMALY":325.8729,"EPHEMERIS_TYPE":0,"CLASSIFICATION_TYPE":"U","NORAD_CAT_ID":22826,"ELEMENT_SET_NO":999,"REV_AT_EPOCH":69250,"BSTAR":8.8483e-5,"MEAN_MOTION_DOT":1.9e-6,"MEAN_MOTION_DDOT":0},{"OBJECT_NAME":"RADIO ROSTO (RS15)","OBJECT_ID":"1994-085A","EPOCH":"2026-03-05T12:39:05.208768","MEAN_MOTION":11.27583846,"ECCENTRICITY":0.0152516,"INCLINATION":64.8144,"RA_OF_ASC_NODE":110.8659,"ARG_OF_PERICENTER":22.8119,"MEAN_ANOMALY":337.9488,"EPHEMERIS_TYPE":0,"CLASSIFICATION_TYPE":"U","NORAD_CAT_ID":23439,"ELEMENT_SET_NO":999,"REV_AT_EPOCH":28421,"BSTAR":0.00060648,"MEAN_MOTION_DOT":-2.1e-7,"MEAN_MOTION_DDOT":0},{"OBJECT_NAME":"JAS-2 (FO-29)","OBJECT_ID":"1996-046B","EPOCH":"2026-03-05T13:55:51.050208","MEAN_MOTION":13.53268505,"ECCENTRICITY":0.0349999,"INCLINATION":98.5386,"RA_OF_ASC_NODE":287.5558,"ARG_OF_PERICENTER":5.4267,"MEAN_ANOMALY":355.0515,"EPHEMERIS_TYPE":0,"CLASSIFICATION_TYPE":"U","NORAD_CAT_ID":24278,"ELEMENT_SET_NO":999,"REV_AT_EPOCH":45915,"BSTAR":1.9286e-5,"MEAN_MOTION_DOT":-1.7e-7,"MEAN_MOTION_DDOT":0},{"OBJECT_NAME":"TECHSAT 1B (GO-32)","OBJECT_ID":"1998-043D","EPOCH":"2026-03-05T10:55:28.127424","MEAN_MOTION":14.24404761,"ECCENTRICITY":0.0001946,"INCLINATION":99.0023,"RA_OF_ASC_NODE":54.6241,"ARG_OF_PERICENTER":126.1502,"MEAN_ANOMALY":233.9856,"EPHEMERIS_TYPE":0,"CLASSIFICATION_TYPE":"U","NORAD_CAT_ID":25397,"ELEMENT_SET_NO":999,"REV_AT_EPOCH":43656,"BSTAR":7.3954e-5,"MEAN_MOTION_DOT":1.24e-6,"MEAN_MOTION_DDOT":0},{"OBJECT_NAME":"ISS (ZARYA)","OBJECT_ID":"1998-067A","EPOCH":"2026-03-05T16:56:13.265376","MEAN_MOTION":15.48463204,"ECCENTRICITY":0.0008143,"INCLINATION":51.6315,"RA_OF_ASC_NODE":92.053,"ARG_OF_PERICENTER":160.3826,"MEAN_ANOMALY":199.7477,"EPHEMERIS_TYPE":0,"CLASSIFICATION_TYPE":"U","NORAD_CAT_ID":25544,"ELEMENT_SET_NO":999,"REV_AT_EPOCH":55571,"BSTAR":0.00017141,"MEAN_MOTION_DOT":8.837e-5,"MEAN_MOTION_DDOT":0},{"OBJECT_NAME":"PCSAT (NO-44)","OBJECT_ID":"2001-043C","EPOCH":"2026-03-05T15:31:31.586304","MEAN_MOTION":14.31909897,"ECCENTRICITY":0.0007017,"INCLINATION":67.0508,"RA_OF_ASC_NODE":152.0681,"ARG_OF_PERICENTER":265.3192,"MEAN_ANOMALY":94.7108,"EPHEMERIS_TYPE":0,"CLASSIFICATION_TYPE":"U","NORAD_CAT_ID":26931,"ELEMENT_SET_NO":999,"REV_AT_EPOCH":27562,"BSTAR":0.00013478,"MEAN_MOTION_DOT":2.78e-6,"MEAN_MOTION_DDOT":0},{"OBJECT_NAME":"SAUDISAT 1C (SO-50)","OBJECT_ID":"2002-058C","EPOCH":"2026-03-05T10:27:37.340640","MEAN_MOTION":14.82762878,"ECCENTRICITY":0.0075171,"INCLINATION":64.5518,"RA_OF_ASC_NODE":89.9288,"ARG_OF_PERICENTER":281.476,"MEAN_ANOMALY":77.7911,"EPHEMERIS_TYPE":0,"CLASSIFICATION_TYPE":"U","NORAD_CAT_ID":27607,"ELEMENT_SET_NO":999,"REV_AT_EPOCH":24907,"BSTAR":0.00031026,"MEAN_MOTION_DOT":2.486e-5,"MEAN_MOTION_DDOT":0},{"OBJECT_NAME":"CUTE-1 (CO-55)","OBJECT_ID":"2003-031E","EPOCH":"2026-03-05T13:25:38.831808","MEAN_MOTION":14.24262275,"ECCENTRICITY":0.001055,"INCLINATION":98.6779,"RA_OF_ASC_NODE":74.4095,"ARG_OF_PERICENTER":123.2151,"MEAN_ANOMALY":237.0041,"EPHEMERIS_TYPE":0,"CLASSIFICATION_TYPE":"U","NORAD_CAT_ID":27844,"ELEMENT_SET_NO":999,"REV_AT_EPOCH":17692,"BSTAR":0.0002266,"MEAN_MOTION_DOT":4.79e-6,"MEAN_MOTION_DDOT":0},{"OBJECT_NAME":"CUBESAT XI-IV (CO-57)","OBJECT_ID":"2003-031J","EPOCH":"2026-03-05T11:54:39.178656","MEAN_MOTION":14.23557892,"ECCENTRICITY":0.0010209,"INCLINATION":98.6809,"RA_OF_ASC_NODE":74.143,"ARG_OF_PERICENTER":139.8999,"MEAN_ANOMALY":220.2934,"EPHEMERIS_TYPE":0,"CLASSIFICATION_TYPE":"U","NORAD_CAT_ID":27848,"ELEMENT_SET_NO":999,"REV_AT_EPOCH":17662,"BSTAR":0.00019211,"MEAN_MOTION_DOT":3.94e-6,"MEAN_MOTION_DDOT":0},{"OBJECT_NAME":"MOZHAETS 4 (RS22)","OBJECT_ID":"2003-042A","EPOCH":"2026-03-05T19:02:49.439328","MEAN_MOTION":14.73241276,"ECCENTRICITY":0.0010318,"INCLINATION":98.3427,"RA_OF_ASC_NODE":246.2465,"ARG_OF_PERICENTER":233.9008,"MEAN_ANOMALY":251.2145,"EPHEMERIS_TYPE":0,"CLASSIFICATION_TYPE":"U","NORAD_CAT_ID":27939,"ELEMENT_SET_NO":999,"REV_AT_EPOCH":20032,"BSTAR":0.00029733,"MEAN_MOTION_DOT":1.868e-5,"MEAN_MOTION_DDOT":0},{"OBJECT_NAME":"CUBESAT XI-V","OBJECT_ID":"2005-043F","EPOCH":"2026-03-05T08:47:31.622208","MEAN_MOTION":14.72297036,"ECCENTRICITY":0.0014469,"INCLINATION":98.2821,"RA_OF_ASC_NODE":217.9088,"ARG_OF_PERICENTER":171.1666,"MEAN_ANOMALY":188.9798,"EPHEMERIS_TYPE":0,"CLASSIFICATION_TYPE":"U","NORAD_CAT_ID":28895,"ELEMENT_SET_NO":999,"REV_AT_EPOCH":8647,"BSTAR":0.00047811,"MEAN_MOTION_DOT":2.974e-5,"MEAN_MOTION_DDOT":0}]
