OSCAR 7 (AO-7)          
1 07530U 74089B   26064.65715039 -.00000052  00000+0 -32217-4 0  9994
2 07530 101.9969  76.8035 0012000 329.9231 145.3610 12.53696301347542
PHASE 3B (AO-10)        
1 14129U 83058B   26061.53393855 -.00000164  00000+0  00000+0 0  9997
2 14129  25.9320 237.4860 6049007  86.0782 336.7646  2.05874052293290
UOSAT 2 (UO-11)         
1 14781U 84021B   26064.30998014  .00002672  00000+0  27934-3 0  9992
2 14781  97.7942  31.1370 0008092 156.6960 203.4626 14.90486816241656
LUSAT (LO-19)           
1 20442U 90005G   26064.57431133  .00000218  00000+0  94517-4 0  9991
2 20442  98.8937  83.4847 0012192 145.9021 214.2948 14.34086110887549
EYESAT A (AO-27)        
1 22825U 93061C   26064.65136282  .00000170  00000+0  81574-4 0  9995
2 22825  98.6989 132.0582 0009135  49.9270 310.2712 14.30911584692199
ITAMSAT (IO-26)         
1 22826U 93061D   26064.66151821  .00000190  00000+0  88483-4 0  9991
2 22826  98.6938 131.9756 0009420  34.3061 325.8729 14.31335491692501
RADIO ROSTO (RS15)      
1 23439U 94085A   26064.52714362 -.00000021  00000+0  60648-3 0  9995
2 23439  64.8144 110.8659 0152516  22.8119 337.9488 11.27583846284217
JAS-2 (FO-29)           
1 24278U 96046B   26064.58045197 -.00000017  00000+0  19286-4 0  9993
2 24278  98.5386 287.5558 0349999   5.4267 355.0515 13.53268505459157
TECHSAT 1B (GO-32)      
1 25397U 98043D   26064.45518666  .00000124  00000+0  73954-4 0  9997
2 25397  99.0023  54.6241 0001946 126.1502 233.9856 14.24404761436563
ISS (ZARYA)             
1 25544U 98067A   26064.70570909  .00008837  00000+0  17141-3 0  9997
2 25544  51.6315  92.0530 0008143 160.3826 199.7477 15.48463204555718
PCSAT (NO-44)           
1 26931U 01043C   26064.64689336  .00000278  00000+0  13478-3 0  9994
2 26931  67.0508 152.0681 0007017 265.3192  94.7108 14.31909897275627
SAUDISAT 1C (SO-50)     
1 27607U 02058C   26064.43584885  .00002486  00000+0  31026-3 0  9994
2 27607  64.5518  89.9288 0075171 281.4760  77.7911 14.82762878249073
CUTE-1 (CO-55)          
1 27844U 03031E   26064.55947722  .00000479  00000+0  22660-3 0  9999
2 27844  98.6779  74.4095 0010550 123.2151 237.0041 14.24262275176925
CUBESAT XI-IV (CO-57)   
1 27848U 03031J   26064.49628679  .00000394  00000+0  19211-3 0  9997
2 27848  98.6809  74.1430 0010209 139.8999 220.2934 14.23557892176620
MOZHAETS 4 (RS22)       
1 27939U 03042A   26064.79362777  .00001868  00000+0  29733-3 0  9994
2 27939  98.3427 246.2465 0010318 233.9008 251.2145 14.73241276200326
CUBESAT XI-V            
1 28895U 05043F   26064.36633822  .00002974  00000+0  47811-3 0  9990
2 28895  98.2821 217.9088 0014469 171.1666 188.9798 14.72297036 86477
